start=new Date('2022-06-13T00:00:00.000Z').valueOf();
sats=[{"ECCENTRICITY":"0.00016720","EPHEMERIS_TYPE":"0","NORAD_CAT_ID":"47381","SEMIMAJOR_AXIS":"6930.343","TLE_LINE1":"1 47381U 21005AJ  22163.93224372  .00000790  00000-0  74871-4 0  9994","OBJECT_ID":"2021-005AJ","LAUNCH_DATE":"2021-01-20","PERIAPSIS":"551.049","OBJECT_NAME":"STARLINK-2101","RCS_SIZE":"LARGE","INCLINATION":"53.0553","REF_FRAME":"TEME","TIME_SYSTEM":"UTC","REV_AT_EPOCH":"7754","MEAN_MOTION_DOT":"0.00000790","ARG_OF_PERICENTER":"66.4395","OBJECT_TYPE":"PAYLOAD","CLASSIFICATION_TYPE":"U","PERIOD":"95.696","BSTAR":"0.00007487100000","MEAN_ANOMALY":"293.6769","CENTER_NAME":"EARTH","MEAN_MOTION_DDOT":"0.0000000000000","TLE_LINE2":"2 47381  53.0553  47.8026 0001672  66.4395 293.6769 15.04771828 77540","FILE":"3493781","MEAN_ELEMENT_THEORY":"SGP4","MEAN_MOTION":"15.04771828","RA_OF_ASC_NODE":"47.8026","APOAPSIS":"553.367","SITE":"AFETR","GP_ID":"206014378","COUNTRY_CODE":"US","DECAY_DATE":null,"ELEMENT_SET_NO":"999","EPOCH":"2022-06-12T22:22:25.857408"},{"RCS_SIZE":"LARGE","OBJECT_NAME":"STARLINK-2102","TIME_SYSTEM":"UTC","REV_AT_EPOCH":"7760","REF_FRAME":"TEME","INCLINATION":"53.0563","OBJECT_TYPE":"PAYLOAD","CLASSIFICATION_TYPE":"U","ARG_OF_PERICENTER":"69.3382","MEAN_MOTION_DOT":"0.00000534","EPHEMERIS_TYPE":"0","ECCENTRICITY":"0.00016060","NORAD_CAT_ID":"47382","SEMIMAJOR_AXIS":"6925.323","LAUNCH_DATE":"2021-01-20","OBJECT_ID":"2021-005AK","PERIAPSIS":"546.076","TLE_LINE1":"1 47382U 21005AK  22163.91100412  .00000534  00000-0  54738-4 0  9997","SITE":"AFETR","GP_ID":"206014628","COUNTRY_CODE":"US","DECAY_DATE":null,"ELEMENT_SET_NO":"999","EPOCH":"2022-06-12T21:51:50.755968","MEAN_MOTION_DDOT":"0.0000000000000","CENTER_NAME":"EARTH","PERIOD":"95.592","MEAN_ANOMALY":"290.7779","BSTAR":"0.00005473800000","MEAN_ELEMENT_THEORY":"SGP4","FILE":"3493781","TLE_LINE2":"2 47382  53.0563  42.8457 0001606  69.3382 290.7779 15.06408325 77607","MEAN_MOTION":"15.06408325","APOAPSIS":"548.300","RA_OF_ASC_NODE":"42.8457"},{"RCS_SIZE":"LARGE","OBJECT_NAME":"STARLINK-2103","INCLINATION":"53.0568","REV_AT_EPOCH":"7775","TIME_SYSTEM":"UTC","REF_FRAME":"TEME","ARG_OF_PERICENTER":"60.7889","MEAN_MOTION_DOT":"0.00000066","CLASSIFICATION_TYPE":"U","OBJECT_TYPE":"PAYLOAD","ECCENTRICITY":"0.00016770","EPHEMERIS_TYPE":"0","NORAD_CAT_ID":"47383","SEMIMAJOR_AXIS":"6925.333","TLE_LINE1":"1 47383U 21005AL  22163.92941232  .00000066  00000-0  23322-4 0  9997","PERIAPSIS":"546.037","LAUNCH_DATE":"2021-01-20","OBJECT_ID":"2021-005AL","SITE":"AFETR","COUNTRY_CODE":"US","GP_ID":"206014874","DECAY_DATE":null,"ELEMENT_SET_NO":"999","EPOCH":"2022-06-12T22:18:21.224448","PERIOD":"95.592","MEAN_ANOMALY":"299.3267","BSTAR":"0.00002332200000","MEAN_MOTION_DDOT":"0.0000000000000","CENTER_NAME":"EARTH","TLE_LINE2":"2 47383  53.0568  32.7654 0001677  60.7889 299.3267 15.06405088 77751","MEAN_ELEMENT_THEORY":"SGP4","FILE":"3493781","MEAN_MOTION":"15.06405088","APOAPSIS":"548.359","RA_OF_ASC_NODE":"32.7654"},{"REV_AT_EPOCH":"7821","TIME_SYSTEM":"UTC","REF_FRAME":"TEME","INCLINATION":"53.0547","RCS_SIZE":"LARGE","OBJECT_NAME":"STARLINK-2104","OBJECT_TYPE":"PAYLOAD","CLASSIFICATION_TYPE":"U","ARG_OF_PERICENTER":"50.4393","MEAN_MOTION_DOT":"0.00034861","NORAD_CAT_ID":"47384","EPHEMERIS_TYPE":"0","ECCENTRICITY":"0.00014550","LAUNCH_DATE":"2021-01-20","PERIAPSIS":"546.713","OBJECT_ID":"2021-005AM","TLE_LINE1":"1 47384U 21005AM  22163.89630313  .00034861  00000-0  23582-2 0  9995","SEMIMAJOR_AXIS":"6925.856","COUNTRY_CODE":"US","GP_ID":"205984941","SITE":"AFETR","EPOCH":"2022-06-12T21:30:40.590432","ELEMENT_SET_NO":"999","DECAY_DATE":null,"MEAN_ELEMENT_THEORY":"SGP4","FILE":"3493458","TLE_LINE2":"2 47384  53.0547  43.1463 0001455  50.4393 309.6724 15.06234425 78213","MEAN_MOTION_DDOT":"0.0000000000000","CENTER_NAME":"EARTH","BSTAR":"0.00235820000000","PERIOD":"95.603","MEAN_ANOMALY":"309.6724","APOAPSIS":"548.729","RA_OF_ASC_NODE":"43.1463","MEAN_MOTION":"15.06234425"},{"NORAD_CAT_ID":"47385","ECCENTRICITY":"0.00019320","EPHEMERIS_TYPE":"0","TLE_LINE1":"1 47385U 21005AN  22163.89257483  .00000483  00000-0  51304-4 0  9997","LAUNCH_DATE":"2021-01-20","PERIAPSIS":"545.856","OBJECT_ID":"2021-005AN","SEMIMAJOR_AXIS":"6925.329","INCLINATION":"53.0564","TIME_SYSTEM":"UTC","REV_AT_EPOCH":"7821","REF_FRAME":"TEME","RCS_SIZE":"LARGE","OBJECT_NAME":"STARLINK-2105","ARG_OF_PERICENTER":"62.8442","MEAN_MOTION_DOT":"0.00000483","OBJECT_TYPE":"PAYLOAD","CLASSIFICATION_TYPE":"U","TLE_LINE2":"2 47385  53.0564  42.9303 0001932  62.8442 297.2744 15.06406388 78218","MEAN_ELEMENT_THEORY":"SGP4","FILE":"3493458","PERIOD":"95.592","MEAN_ANOMALY":"297.2744","BSTAR":"0.00005130400000","MEAN_MOTION_DDOT":"0.0000000000000","CENTER_NAME":"EARTH","APOAPSIS":"548.532","RA_OF_ASC_NODE":"42.9303","MEAN_MOTION":"15.06406388","GP_ID":"205984940","COUNTRY_CODE":"US","SITE":"AFETR","ELEMENT_SET_NO":"999","EPOCH":"2022-06-12T21:25:18.465312","DECAY_DATE":null},{"DECAY_DATE":null,"EPOCH":"2022-06-12T22:07:46.753824","ELEMENT_SET_NO":"999","SITE":"AFETR","COUNTRY_CODE":"US","GP_ID":"206015129","MEAN_MOTION":"15.06407867","RA_OF_ASC_NODE":"42.7923","APOAPSIS":"548.450","PERIOD":"95.592","MEAN_ANOMALY":"301.2325","BSTAR":"0.00016520000000","CENTER_NAME":"EARTH","MEAN_MOTION_DDOT":"0.0000000000000","TLE_LINE2":"2 47386  53.0556  42.7923 0001820  58.8842 301.2325 15.06407867 77618","FILE":"3493781","MEAN_ELEMENT_THEORY":"SGP4","MEAN_MOTION_DOT":"0.00002180","ARG_OF_PERICENTER":"58.8842","OBJECT_TYPE":"PAYLOAD","CLASSIFICATION_TYPE":"U","OBJECT_NAME":"STARLINK-2106","RCS_SIZE":"LARGE","INCLINATION":"53.0556","REF_FRAME":"TEME","TIME_SYSTEM":"UTC","REV_AT_EPOCH":"7761","SEMIMAJOR_AXIS":"6925.324","TLE_LINE1":"1 47386U 21005AP  22163.92206891  .00002180  00000-0  16520-3 0  9995","LAUNCH_DATE":"2021-01-20","OBJECT_ID":"2021-005AP","PERIAPSIS":"545.929","ECCENTRICITY":"0.00018200","EPHEMERIS_TYPE":"0","NORAD_CAT_ID":"47386"},{"SEMIMAJOR_AXIS":"6925.349","LAUNCH_DATE":"2021-01-20","OBJECT_ID":"2021-005AQ","PERIAPSIS":"546.184","TLE_LINE1":"1 47387U 21005AQ  22163.90824317 -.00000186  00000-0  64069-5 0  9991","EPHEMERIS_TYPE":"0","ECCENTRICITY":"0.00014880","NORAD_CAT_ID":"47387","CLASSIFICATION_TYPE":"U","OBJECT_TYPE":"PAYLOAD","ARG_OF_PERICENTER":"73.0701","MEAN_MOTION_DOT":"-0.00000186","RCS_SIZE":"LARGE","OBJECT_NAME":"STARLINK-2108","TIME_SYSTEM":"UTC","REV_AT_EPOCH":"7718","REF_FRAME":"TEME","INCLINATION":"53.0552","MEAN_MOTION":"15.06399792","APOAPSIS":"548.245","RA_OF_ASC_NODE":"72.8486","MEAN_MOTION_DDOT":"0.0000000000000","CENTER_NAME":"EARTH","MEAN_ANOMALY":"287.0451","PERIOD":"95.592","BSTAR":"0.00000640690000","MEAN_ELEMENT_THEORY":"SGP4","FILE":"3493781","TLE_LINE2":"2 47387  53.0552  72.8486 0001488  73.0701 287.0451 15.06399792 77186","DECAY_DATE":null,"EPOCH":"2022-06-12T21:47:52.209888","ELEMENT_SET_NO":"999","SITE":"AFETR","COUNTRY_CODE":"US","GP_ID":"206015375"},{"SITE":"AFETR","COUNTRY_CODE":"US","GP_ID":"205978765","DECAY_DATE":null,"ELEMENT_SET_NO":"999","EPOCH":"2022-06-12T11:00:20.117952","PERIOD":"95.593","MEAN_ANOMALY":"301.3247","BSTAR":"-0.00000354610000","CENTER_NAME":"EARTH","MEAN_MOTION_DDOT":"0.0000000000000","TLE_LINE2":"2 47388  53.0550  74.8676 0002058  58.7943 301.3247 15.06391762 77115","FILE":"3493305","MEAN_ELEMENT_THEORY":"SGP4","MEAN_MOTION":"15.06391762","RA_OF_ASC_NODE":"74.8676","APOAPSIS":"548.664","OBJECT_NAME":"STARLINK-2109","RCS_SIZE":"LARGE","INCLINATION":"53.0550","REF_FRAME":"TEME","REV_AT_EPOCH":"7711","TIME_SYSTEM":"UTC","MEAN_MOTION_DOT":"-0.00000335","ARG_OF_PERICENTER":"58.7943","OBJECT_TYPE":"PAYLOAD","CLASSIFICATION_TYPE":"U","ECCENTRICITY":"0.00020580","EPHEMERIS_TYPE":"0","NORAD_CAT_ID":"47388","SEMIMAJOR_AXIS":"6925.374","TLE_LINE1":"1 47388U 21005AR  22163.45856618 -.00000335  00000-0 -35461-5 0  9992","OBJECT_ID":"2021-005AR","LAUNCH_DATE":"2021-01-20","PERIAPSIS":"545.814"},{"MEAN_MOTION":"15.06605403","APOAPSIS":"548.466","RA_OF_ASC_NODE":"52.8791","MEAN_MOTION_DDOT":"0.0000000000000","CENTER_NAME":"EARTH","MEAN_ANOMALY":"341.2964","PERIOD":"95.579","BSTAR":"-0.00207280000000","MEAN_ELEMENT_THEORY":"SGP4","FILE":"3493781","TLE_LINE2":"2 47389  53.0568  52.8791 0002718  18.8125 341.2964 15.06605403 77468","DECAY_DATE":null,"ELEMENT_SET_NO":"999","EPOCH":"2022-06-12T21:38:56.972256","SITE":"AFETR","COUNTRY_CODE":"US","GP_ID":"206014379","SEMIMAJOR_AXIS":"6924.719","LAUNCH_DATE":"2021-01-20","PERIAPSIS":"544.702","OBJECT_ID":"2021-005AS","TLE_LINE1":"1 47389U 21005AS  22163.90204829 -.00031196  00000-0 -20728-2 0  9990","EPHEMERIS_TYPE":"0","ECCENTRICITY":"0.00027180","NORAD_CAT_ID":"47389","CLASSIFICATION_TYPE":"U","OBJECT_TYPE":"PAYLOAD","ARG_OF_PERICENTER":"18.8125","MEAN_MOTION_DOT":"-0.00031196","RCS_SIZE":"LARGE","OBJECT_NAME":"STARLINK-2110","REV_AT_EPOCH":"7746","TIME_SYSTEM":"UTC","REF_FRAME":"TEME","INCLINATION":"53.0568"},{"CLASSIFICATION_TYPE":"U","OBJECT_TYPE":"PAYLOAD","ARG_OF_PERICENTER":"66.7742","MEAN_MOTION_DOT":"-0.00000355","TIME_SYSTEM":"UTC","REV_AT_EPOCH":"7718","REF_FRAME":"TEME","INCLINATION":"53.0562","RCS_SIZE":"LARGE","OBJECT_NAME":"STARLINK-2111","LAUNCH_DATE":"2021-01-20","PERIAPSIS":"545.760","OBJECT_ID":"2021-005AT","TLE_LINE1":"1 47390U 21005AT  22163.89718417 -.00000355  00000-0 -48989-5 0  9998","SEMIMAJOR_AXIS":"6925.337","NORAD_CAT_ID":"47390","EPHEMERIS_TYPE":"0","ECCENTRICITY":"0.00020820","ELEMENT_SET_NO":"999","EPOCH":"2022-06-12T21:31:56.712288","DECAY_DATE":null,"GP_ID":"206014629","COUNTRY_CODE":"US","SITE":"AFETR","APOAPSIS":"548.644","RA_OF_ASC_NODE":"72.9081","MEAN_MOTION":"15.06403700","MEAN_ELEMENT_THEORY":"SGP4","FILE":"3493781","TLE_LINE2":"2 47390  53.0562  72.9081 0002082  66.7742 293.3466 15.06403700 77189","MEAN_MOTION_DDOT":"0.0000000000000","CENTER_NAME":"EARTH","MEAN_ANOMALY":"293.3466","PERIOD":"95.592","BSTAR":"-0.00000489890000"}];
